UFO 11 (USA 174)        
1 28117U 03057A   24020.11777997 -.00000102  00000+0  00000+0 0  9992
2 28117   7.8339  37.1324 0002316 262.7238 296.7776  1.00272565 73634
USA 176 (DSP 22)        
1 28158U 04004A   24020.54204378 -.00000220  00000+0  00000+0 0  9996
2 28158  10.8603  31.9353 0001927 250.8188 118.9530  1.00266912 24122
ABS-4 (MOBISAT-1)       
1 28184U 04007A   24020.24007654  .00000041  00000+0  00000+0 0  9993
2 28184   3.8005  82.5898 0006836 218.6739 325.2466  1.00273225 43524
EUTELSAT 7A             
1 28187U 04008A   24020.57831133  .00000105  00000+0  00000+0 0  9991
2 28187   3.5870  82.3063 0003139 222.5557 243.5372  1.00270872 72548
AMC-11 (GE-11)          
1 28252U 04017A   24020.51560242 -.00000044  00000+0  00000+0 0  9991
2 28252   0.0365 307.5768 0003044 340.5540 265.7516  1.00269121 72062
ANIK F2                 
1 28378U 04027A   24020.46367206 -.00000045  00000+0  00000+0 0  9991
2 28378   1.0077  91.0039 0001200 207.0246 237.0772  1.00271070 32451
AMC-15                  
1 28446U 04041A   24020.61109090 -.00000084  00000+0  00000+0 0  9998
2 28446   0.0368 305.3163 0002638 347.4485 301.6265  1.00271274 70507
NSS-10 (AMC-12)         
1 28526U 05003A   24020.45347983 -.00000251  00000+0  00000+0 0  9999
2 28526   4.2400  80.9300 0003147 213.8841 310.2890  1.00271153 44345
XTAR-EUR                
1 28542U 05005A   24019.83230090  .00000154  00000+0  00000+0 0  9990
2 28542   2.0633  87.6954 0005961 203.8810 155.7431  1.00273497 69373
XM-3 (RHYTHM)           
1 28626U 05008A   24020.44118480 -.00000200  00000+0  00000+0 0  9996
2 28626   0.0403 220.6667 0000293 356.8980 335.4414  1.00268763 33817
DIRECTV 8               
1 28659U 05019A   24020.59837573  .00000006  00000+0  00000+0 0  9994
2 28659   0.0275  59.9266 0003235 246.3001 269.6082  1.00271127 68268
GALAXY 28 (G-28)        
1 28702U 05022A   24020.49647308 -.00000181  00000+0  00000+0 0  9996
2 28702   1.0246  89.7187 0006604 195.7864 283.5644  1.00271288 43176
THAICOM 4               
1 28786U 05028A   24020.54841043 -.00000358  00000+0  00000+0 0  9998
2 28786   0.0231  57.7769 0002486 263.3942 115.1572  1.00267367 43437
GALAXY 14 (G-14)        
1 28790U 05030A   24020.46749050  .00000156  00000+0  00000+0 0  9997
2 28790   2.7478  85.6378 0001669 211.1117  23.7441  1.00271783 67495
ANIK F1R                
1 28868U 05036A   24020.60886417 -.00000072  00000+0  00000+0 0  9992
2 28868   2.0493  87.4653 0001714 234.0116 269.8535  1.00271589 37646
SYRACUSE 3A             
1 28885U 05041B   24020.47018821  .00000134  00000+0  00000+0 0  9996
2 28885   2.3910  86.7216 0003216 211.2695  36.8018  1.00269416 66935
INMARSAT 4-F2           
1 28899U 05044A   24020.52914015 -.00000259  00000+0  00000+0 0  9999
2 28899   4.0259  41.8348 0002294 264.5081 147.0224  1.00272468 66719
SPACEWAY 2              
1 28903U 05046B   24020.57831064  .00000104  00000+0  00000+0 0  9992
2 28903   3.2550  82.0035 0000642 149.4527 317.2556  1.00270324 42533
EUTELSAT 174A           
1 28924U 05052A   24020.65007854  .00000011  00000+0  00000+0 0  9990
2 28924   1.9802  87.2832 0006308 214.1622 226.0531  1.00270625 43528
ECHOSTAR 10             
1 28935U 06003A   24020.60599759 -.00000050  00000+0  00000+0 0  9998
2 28935   0.0523 278.6287 0002717 349.4651 319.3281  1.00270853 65664
SPAINSAT                
1 28945U 06007A   24019.75364676 -.00000211  00000+0  00000+0 0  9994
2 28945   0.0613 246.3662 0004917  27.7232  85.8315  1.00272862 65406
